ONEWEB-0128             
1 47274U 20100S   25317.27979844  .00000382  00000+0  10271-2 0  9990
2 47274  87.8962  33.5934 0001985 101.5648 258.5703 13.12443832236429
ONEWEB-0129             
1 47275U 20100T   25317.48741042 -.00000191  00000+0 -56590-3 0  9996
2 47275  87.8977  33.5023 0002289  71.3526 288.7851 13.12444878236387
ONEWEB-0130             
1 47276U 20100U   25317.21004696  .00000375  00000+0  10084-2 0  9994
2 47276  87.8973  33.5530 0001878 101.0510 259.0829 13.12441707236311
ONEWEB-0131             
1 47277U 20100V   25317.51175387  .00000520  00000+0  14106-2 0  9995
2 47277  87.8970  33.5233 0001787 102.6779 257.4549 13.12442545236392
ONEWEB-0132             
1 47278U 20100W   25317.69341595 -.00000216  00000+0 -63495-3 0  9991
2 47278  87.8975  33.4891 0001817 101.8359 258.2973 13.12442703236314
ONEWEB-0133             
1 47279U 20100X   25317.63326414 -.00000379  00000+0 -10900-2 0  9991
2 47279  87.8966  33.4645 0001896 104.5696 255.5643 13.12443170236462
ONEWEB-0134             
1 47280U 20100Y   25317.67882806  .00000204  00000+0  53224-3 0  9991
2 47280  87.8974  33.4485 0002026  99.1138 261.0220 13.12442638236440
ONEWEB-0135             
1 47281U 20100Z   25317.64962434  .00000120  00000+0  29766-3 0  9996
2 47281  87.8955  33.4945 0002223 102.3799 257.7578 13.12443966236465
